[
  {
    "OBJECT_NAME": "STARLINK-34281",
    "OBJECT_ID": "25120E",
    "EPOCH": "2025-11-11T06:02:54.228192",
    "MEAN_MOTION": 15.30168727,
    "ECCENTRICITY": 0.0001218,
    "INCLINATION": 53.1604,
    "RA_OF_ASC_NODE": 306.7654,
    "ARG_OF_PERICENTER": 100.6711,
    "MEAN_ANOMALY": 259.4427,
    "EPHEMERIS_TYPE": 0,
    "CLASSIFICATION_TYPE": "U",
    "NORAD_CAT_ID": 64260,
    "ELEMENT_SET_NO": 999,
    "REV_AT_EPOCH": 2573,
    "BSTAR": 0.0012900000000000001,
    "MEAN_MOTION_DOT": 0.00038007,
    "MEAN_MOTION_DDOT": 0.0,
    "TLE_LINE1": "1 64260U 25120E   25315.25201653  .00038007  00000+0  12900-2 0  9999",
    "TLE_LINE2": "2 64260  53.1604 306.7654 0001218 100.6711 259.4427 15.30168727 25738",
    "COMMENT": "Grouped by shell and plane from TLE"
  },
  {
    "OBJECT_NAME": "STARLINK-34297",
    "OBJECT_ID": "25120F",
    "EPOCH": "2025-11-11T06:07:27.273792",
    "MEAN_MOTION": 15.30197826,
    "ECCENTRICITY": 0.0001418,
    "INCLINATION": 53.1604,
    "RA_OF_ASC_NODE": 306.7887,
    "ARG_OF_PERICENTER": 95.5657,
    "MEAN_ANOMALY": 264.5505,
    "EPHEMERIS_TYPE": 0,
    "CLASSIFICATION_TYPE": "U",
    "NORAD_CAT_ID": 64261,
    "ELEMENT_SET_NO": 999,
    "REV_AT_EPOCH": 2568,
    "BSTAR": 0.0019547,
    "MEAN_MOTION_DOT": 0.00057983,
    "MEAN_MOTION_DDOT": 0.0,
    "TLE_LINE1": "1 64261U 25120F   25315.25517678  .00057983  00000+0  19547-2 0  9995",
    "TLE_LINE2": "2 64261  53.1604 306.7887 0001418  95.5657 264.5505 15.30197826 25680",
    "COMMENT": "Grouped by shell and plane from TLE"
  },
  {
    "OBJECT_NAME": "STARLINK-34325",
    "OBJECT_ID": "25120G",
    "EPOCH": "2025-11-11T06:43:55.400448",
    "MEAN_MOTION": 15.30210675,
    "ECCENTRICITY": 0.0001331,
    "INCLINATION": 53.1586,
    "RA_OF_ASC_NODE": 306.9409,
    "ARG_OF_PERICENTER": 92.7941,
    "MEAN_ANOMALY": 267.3212,
    "EPHEMERIS_TYPE": 0,
    "CLASSIFICATION_TYPE": "U",
    "NORAD_CAT_ID": 64262,
    "ELEMENT_SET_NO": 999,
    "REV_AT_EPOCH": 2578,
    "BSTAR": 0.0011278,
    "MEAN_MOTION_DOT": 0.00033204,
    "MEAN_MOTION_DDOT": 0.0,
    "TLE_LINE1": "1 64262U 25120G   25315.28050232  .00033204  00000+0  11278-2 0  9990",
    "TLE_LINE2": "2 64262  53.1586 306.9409 0001331  92.7941 267.3212 15.30210675 25786",
    "COMMENT": "Grouped by shell and plane from TLE"
  },
  {
    "OBJECT_NAME": "STARLINK-34276",
    "OBJECT_ID": "25120H",
    "EPOCH": "2025-11-11T05:53:46.702752",
    "MEAN_MOTION": 15.30222444,
    "ECCENTRICITY": 0.0001095,
    "INCLINATION": 53.1611,
    "RA_OF_ASC_NODE": 306.7282,
    "ARG_OF_PERICENTER": 71.1459,
    "MEAN_ANOMALY": 288.966,
    "EPHEMERIS_TYPE": 0,
    "CLASSIFICATION_TYPE": "U",
    "NORAD_CAT_ID": 64263,
    "ELEMENT_SET_NO": 999,
    "REV_AT_EPOCH": 2578,
    "BSTAR": 0.0015945000000000002,
    "MEAN_MOTION_DOT": 0.00047199,
    "MEAN_MOTION_DDOT": 0.0,
    "TLE_LINE1": "1 64263U 25120H   25315.24567943  .00047199  00000+0  15945-2 0  9992",
    "TLE_LINE2": "2 64263  53.1611 306.7282 0001095  71.1459 288.9660 15.30222444 25788",
    "COMMENT": "Grouped by shell and plane from TLE"
  },
  {
    "OBJECT_NAME": "STARLINK-34333",
    "OBJECT_ID": "25120J",
    "EPOCH": "2025-11-11T07:08:04.586784",
    "MEAN_MOTION": 15.30205473,
    "ECCENTRICITY": 0.0001224,
    "INCLINATION": 53.1599,
    "RA_OF_ASC_NODE": 306.3423,
    "ARG_OF_PERICENTER": 97.9206,
    "MEAN_ANOMALY": 262.1934,
    "EPHEMERIS_TYPE": 0,
    "CLASSIFICATION_TYPE": "U",
    "NORAD_CAT_ID": 64264,
    "ELEMENT_SET_NO": 999,
    "REV_AT_EPOCH": 2574,
    "BSTAR": 0.0009697099999999999,
    "MEAN_MOTION_DOT": 0.00028476,
    "MEAN_MOTION_DDOT": 0.0,
    "TLE_LINE1": "1 64264U 25120J   25315.29727531  .00028476  00000+0  96971-3 0  9995",
    "TLE_LINE2": "2 64264  53.1599 306.3423 0001224  97.9206 262.1934 15.30205473 25744",
    "COMMENT": "Grouped by shell and plane from TLE"
  },
  {
    "OBJECT_NAME": "STARLINK-34240",
    "OBJECT_ID": "25120K",
    "EPOCH": "2025-11-11T06:59:07.297152",
    "MEAN_MOTION": 15.30209697,
    "ECCENTRICITY": 0.0001449,
    "INCLINATION": 53.1593,
    "RA_OF_ASC_NODE": 307.01,
    "ARG_OF_PERICENTER": 105.7672,
    "MEAN_ANOMALY": 254.3489,
    "EPHEMERIS_TYPE": 0,
    "CLASSIFICATION_TYPE": "U",
    "NORAD_CAT_ID": 64265,
    "ELEMENT_SET_NO": 999,
    "REV_AT_EPOCH": 2578,
    "BSTAR": 0.0012564,
    "MEAN_MOTION_DOT": 0.00037049,
    "MEAN_MOTION_DDOT": 0.0,
    "TLE_LINE1": "1 64265U 25120K   25315.29105668  .00037049  00000+0  12564-2 0  9998",
    "TLE_LINE2": "2 64265  53.1593 307.0100 0001449 105.7672 254.3489 15.30209697 25787",
    "COMMENT": "Grouped by shell and plane from TLE"
  },
  {
    "OBJECT_NAME": "STARLINK-34315",
    "OBJECT_ID": "25120L",
    "EPOCH": "2025-11-11T06:36:19.605888",
    "MEAN_MOTION": 15.30212812,
    "ECCENTRICITY": 0.000114,
    "INCLINATION": 53.1581,
    "RA_OF_ASC_NODE": 306.9104,
    "ARG_OF_PERICENTER": 88.4489,
    "MEAN_ANOMALY": 271.6643,
    "EPHEMERIS_TYPE": 0,
    "CLASSIFICATION_TYPE": "U",
    "NORAD_CAT_ID": 64266,
    "ELEMENT_SET_NO": 999,
    "REV_AT_EPOCH": 2572,
    "BSTAR": 0.0018658,
    "MEAN_MOTION_DOT": 0.00055334,
    "MEAN_MOTION_DDOT": 0.0,
    "TLE_LINE1": "1 64266U 25120L   25315.27522692  .00055334  00000+0  18658-2 0  9994",
    "TLE_LINE2": "2 64266  53.1581 306.9104 0001140  88.4489 271.6643 15.30212812 25729",
    "COMMENT": "Grouped by shell and plane from TLE"
  },
  {
    "OBJECT_NAME": "STARLINK-34321",
    "OBJECT_ID": "25120M",
    "EPOCH": "2025-11-11T07:14:09.420288",
    "MEAN_MOTION": 15.3020586,
    "ECCENTRICITY": 0.000152,
    "INCLINATION": 53.1607,
    "RA_OF_ASC_NODE": 306.3638,
    "ARG_OF_PERICENTER": 72.7605,
    "MEAN_ANOMALY": 287.3562,
    "EPHEMERIS_TYPE": 0,
    "CLASSIFICATION_TYPE": "U",
    "NORAD_CAT_ID": 64267,
    "ELEMENT_SET_NO": 999,
    "REV_AT_EPOCH": 2579,
    "BSTAR": 0.0019616,
    "MEAN_MOTION_DOT": 0.00058204,
    "MEAN_MOTION_DDOT": 0.0,
    "TLE_LINE1": "1 64267U 25120M   25315.30149792  .00058204  00000+0  19616-2 0  9999",
    "TLE_LINE2": "2 64267  53.1607 306.3638 0001520  72.7605 287.3562 15.30205860 25799",
    "COMMENT": "Grouped by shell and plane from TLE"
  },
  {
    "OBJECT_NAME": "STARLINK-34319",
    "OBJECT_ID": "25120N",
    "EPOCH": "2025-11-11T06:05:55.928256",
    "MEAN_MOTION": 15.30207332,
    "ECCENTRICITY": 0.0001329,
    "INCLINATION": 53.1596,
    "RA_OF_ASC_NODE": 306.7769,
    "ARG_OF_PERICENTER": 117.6203,
    "MEAN_ANOMALY": 242.4933,
    "EPHEMERIS_TYPE": 0,
    "CLASSIFICATION_TYPE": "U",
    "NORAD_CAT_ID": 64268,
    "ELEMENT_SET_NO": 999,
    "REV_AT_EPOCH": 2578,
    "BSTAR": 0.001338,
    "MEAN_MOTION_DOT": 0.0003949,
    "MEAN_MOTION_DDOT": 0.0,
    "TLE_LINE1": "1 64268U 25120N   25315.25411954  .00039490  00000+0  13380-2 0  9994",
    "TLE_LINE2": "2 64268  53.1596 306.7769 0001329 117.6203 242.4933 15.30207332 25785",
    "COMMENT": "Grouped by shell and plane from TLE"
  },
  {
    "OBJECT_NAME": "STARLINK-34298",
    "OBJECT_ID": "25120P",
    "EPOCH": "2025-11-11T07:18:43.061184",
    "MEAN_MOTION": 15.30200438,
    "ECCENTRICITY": 0.0001385,
    "INCLINATION": 53.1607,
    "RA_OF_ASC_NODE": 306.3852,
    "ARG_OF_PERICENTER": 75.8747,
    "MEAN_ANOMALY": 284.2407,
    "EPHEMERIS_TYPE": 0,
    "CLASSIFICATION_TYPE": "U",
    "NORAD_CAT_ID": 64269,
    "ELEMENT_SET_NO": 999,
    "REV_AT_EPOCH": 2569,
    "BSTAR": 0.0013368,
    "MEAN_MOTION_DOT": 0.00039443,
    "MEAN_MOTION_DDOT": 0.0,
    "TLE_LINE1": "1 64269U 25120P   25315.30466506  .00039443  00000+0  13368-2 0  9998",
    "TLE_LINE2": "2 64269  53.1607 306.3852 0001385  75.8747 284.2407 15.30200438 25698",
    "COMMENT": "Grouped by shell and plane from TLE"
  },
  {
    "OBJECT_NAME": "STARLINK-34219",
    "OBJECT_ID": "25120Q",
    "EPOCH": "2025-11-11T05:14:25.840896",
    "MEAN_MOTION": 15.30214649,
    "ECCENTRICITY": 0.0001863,
    "INCLINATION": 53.1597,
    "RA_OF_ASC_NODE": 307.2644,
    "ARG_OF_PERICENTER": 106.2464,
    "MEAN_ANOMALY": 253.8742,
    "EPHEMERIS_TYPE": 0,
    "CLASSIFICATION_TYPE": "U",
    "NORAD_CAT_ID": 64270,
    "ELEMENT_SET_NO": 999,
    "REV_AT_EPOCH": 2577,
    "BSTAR": 0.00084367,
    "MEAN_MOTION_DOT": 0.00024723,
    "MEAN_MOTION_DDOT": 0.0,
    "TLE_LINE1": "1 64270U 25120Q   25315.21835464  .00024723  00000+0  84367-3 0  9996",
    "TLE_LINE2": "2 64270  53.1597 307.2644 0001863 106.2464 253.8742 15.30214649 25775",
    "COMMENT": "Grouped by shell and plane from TLE"
  },
  {
    "OBJECT_NAME": "STARLINK-34342",
    "OBJECT_ID": "25120R",
    "EPOCH": "2025-11-11T06:21:07.810272",
    "MEAN_MOTION": 15.30208412,
    "ECCENTRICITY": 0.0001177,
    "INCLINATION": 53.1588,
    "RA_OF_ASC_NODE": 306.8462,
    "ARG_OF_PERICENTER": 94.9669,
    "MEAN_ANOMALY": 265.1466,
    "EPHEMERIS_TYPE": 0,
    "CLASSIFICATION_TYPE": "U",
    "NORAD_CAT_ID": 64271,
    "ELEMENT_SET_NO": 999,
    "REV_AT_EPOCH": 2573,
    "BSTAR": 0.0020480999999999997,
    "MEAN_MOTION_DOT": 0.00060812,
    "MEAN_MOTION_DDOT": 0.0,
    "TLE_LINE1": "1 64271U 25120R   25315.26467373  .00060812  00000+0  20481-2 0  9997",
    "TLE_LINE2": "2 64271  53.1588 306.8462 0001177  94.9669 265.1466 15.30208412 25733",
    "COMMENT": "Grouped by shell and plane from TLE"
  },
  {
    "OBJECT_NAME": "STARLINK-34001",
    "OBJECT_ID": "25120S",
    "EPOCH": "2025-11-11T05:20:30.492960",
    "MEAN_MOTION": 15.30210744,
    "ECCENTRICITY": 0.0001431,
    "INCLINATION": 53.1588,
    "RA_OF_ASC_NODE": 307.294,
    "ARG_OF_PERICENTER": 99.1653,
    "MEAN_ANOMALY": 260.9509,
    "EPHEMERIS_TYPE": 0,
    "CLASSIFICATION_TYPE": "U",
    "NORAD_CAT_ID": 64272,
    "ELEMENT_SET_NO": 999,
    "REV_AT_EPOCH": 2567,
    "BSTAR": 0.0011187999999999999,
    "MEAN_MOTION_DOT": 0.00032935,
    "MEAN_MOTION_DDOT": 0.0,
    "TLE_LINE1": "1 64272U 25120S   25315.22257515  .00032935  00000+0  11188-2 0  9998",
    "TLE_LINE2": "2 64272  53.1588 307.2940 0001431  99.1653 260.9509 15.30210744 25678",
    "COMMENT": "Grouped by shell and plane from TLE"
  }
]